COSMOS 2433 (720)       
1 32275U 07052A   23204.79917838 -.00000054  00000+0  00000+0 0  9994
2 32275  66.0337 351.3471 0002244 196.3191 163.6813  2.13104210122481
COSMOS 2432 (719)       
1 32276U 07052B   23205.11535411 -.00000053  00000+0  00000+0 0  9994
2 32276  66.0478 351.4447 0007905 333.6997 216.0573  2.13103385122513
COSMOS 2434 (721)       
1 32393U 07065A   23205.45102097  .00000090  00000+0  00000+0 0  9995
2 32393  64.3383 227.7303 0000361 183.6447 207.4539  2.13103195121218
COSMOS 2436 (723)       
1 32395U 07065C   23205.22234642  .00000087  00000+0  00000+0 0  9990
2 32395  64.3469 227.7994 0015353 351.4115 359.8153  2.13102982121155
COSMOS 2456 (730)       
1 36111U 09070A   23205.42385799 -.00000005  00000+0  00000+0 0  9991
2 36111  64.4746 107.2465 0003744 319.7439 210.3084  2.13099299105866
COSMOS 2457 (733)       
1 36112U 09070B   23205.27132667 -.00000005  00000+0  00000+0 0  9999
2 36112  64.4582 107.1181 0004236 158.6761  24.8174  2.13101454105869
COSMOS 2460 (732)       
1 36402U 10007C   23205.58435485 -.00000052  00000+0  00000+0 0  9993
2 36402  65.8968 350.0437 0002024 112.4563 299.1005  2.13106395104170
COSMOS 2476 (744)       
1 37867U 11064A   23205.45775824 -.00000004  00000+0  00000+0 0  9990
2 37867  64.7555 108.7567 0021876 236.7348 228.2859  2.13101807 91207
COSMOS 2477 (745)       
1 37868U 11064B   23205.32097314 -.00000003  00000+0  00000+0 0  9997
2 37868  64.7627 108.8303 0019122 237.7403 300.2431  2.13101722 91192
COSMOS 2475 (743)       
1 37869U 11064C   23205.34470458 -.00000003  00000+0  00000+0 0  9994
2 37869  64.7699 108.8413 0023695 254.4243 260.1858  2.13102124 91208
COSMOS 2485 (747)       
1 39155U 13019A   23205.26281720 -.00000002  00000+0  00000+0 0  9998
2 39155  64.9160 109.2779 0022280 232.6432 127.2012  2.13102008 79718
COSMOS 2492 (754)       
1 39620U 14012A   23204.27977236 -.00000056  00000+0  00000+0 0  9992
2 39620  65.7810 349.7119 0010840 326.3269  33.6105  2.13103253 72655
COSMOS 2500 (755)       
1 40001U 14032A   23204.93289261 -.00000054  00000+0  00000+0 0  9994
2 40001  65.7193 349.5207 0006908 186.2538 173.7454  2.13106045 70880
COSMOS 2501 (702K)      
1 40315U 14075A   23205.18241975  .00000086  00000+0  00000+0 0  9991
2 40315  63.6420 227.1304 0020222 211.5353 148.3982  2.13101493 67285
COSMOS 2514 (751)       
1 41330U 16008A   23205.16348483 -.00000054  00000+0  00000+0 0  9993
2 41330  65.5167 349.1050 0010342 200.5356 159.4312  2.13102739 58057
COSMOS 2516 (753)       
1 41554U 16032A   23205.27942552  .00000087  00000+0  00000+0 0  9992
2 41554  63.8682 227.5161 0015520 214.8052 145.1488  2.13106534 55661
COSMOS 2522 (752)       
1 42939U 17055A   23203.59779875  .00000069  00000+0  00000+0 0  9995
2 42939  64.1024 228.0869 0010169 242.3398 117.6143  2.13102051 45376
COSMOS 2527 (756)       
1 43508U 18053A   23204.49483438  .00000001  00000+0  00000+0 0  9990
2 43508  65.0773 109.3876 0007827 231.9076 128.0696  2.13102483 39699
COSMOS 2529 (757)       
1 43687U 18086A   23204.59429109  .00000079  00000+0  00000+0 0  9995
2 43687  64.3177 228.4767 0011755 261.0081  98.9159  2.13102198 36705
COSMOS 2534 (758)       
1 44299U 19030A   23205.58952814  .00000091  00000+0  00000+0 0  9993
2 44299  64.3901 228.3653 0013822 279.8153 257.9287  2.13102203 32361
COSMOS 2544 (759)       
1 44850U 19088A   23202.09221281  .00000003  00000+0  00000+0 0  9992
2 44850  65.0627 109.3119 0012670 258.7796 101.1220  2.13102292 28080
COSMOS 2545 (760)       
1 45358U 20018A   23205.10456661 -.00000056  00000+0  00000+0 0  9997
2 45358  64.8569 349.3865 0008065 235.0573 124.8753  2.13102684 26091
COSMOS 2547 (705K)      
1 46805U 20075A   23205.29391520  .00000088  00000+0  00000+0 0  9994
2 46805  64.6173 227.9188 0008806 243.4862 116.4802  2.13103118 21342
COSMOS 2557 (706K)      
1 52984U 22075A   23205.45605086 -.00000055  00000+0  00000+0 0  9999
2 52984  64.7719 351.5380 0010680 279.3700  80.5183  2.13102295  8156
COSMOS 2559 (707K)      
1 54031U 22130A   23204.92861175 -.00000056  00000+0  00000+0 0  9991
2 54031  64.7431 351.6853 0005967 210.6778 149.2958  2.13101518  6117
COSMOS 2564 (761)       
1 54377U 22161A   23204.65288162  .00000081  00000+0  00000+0 0  9994
2 54377  64.7580 227.9857 0011285 226.3071 133.6559  2.13102261  5056
